{"type": "Feature", "geometry": {"type": "Point", "coordinates": [-122.476173, 40.446179]}, "properties": {"prmname": "GW_01", "description": "Central Valley groundwater basin", "type": "Groundwater Storage", "initialstorage": 31774, "endingstorage": 31480, "inflows": {"default": {"description": "Groundwater inflow GW-01", "inflow": {"$ref": "inflows/default.csv"}}}, "storage": {"$ref": "storage.csv"}, "costs": {"type": "Constant", "cost": 0}, "bounds": [{"type": "NOB"}], "sinks": null, "flow": null}}