{"type": "Feature", "geometry": {"type": "Point", "coordinates": [-119.503074, 36.579299]}, "properties": {"prmname": "GW_17", "description": "Central Valley groundwater basin", "type": "Groundwater Storage", "initialstorage": 89487, "endingstorage": 83366, "inflows": {"default": {"description": "Groundwater inflow GW-17 C2VSIM Historical Run ", "inflow": {"$ref": "inflows/default.csv"}}}, "storage": {"$ref": "storage.csv"}, "costs": {"type": "Constant", "cost": 0}, "bounds": [{"type": "NOB"}], "sinks": null, "flow": null}}