{"type":"Feature",
 "geometry":{"type":"Point","coordinates":[-121.416087,39.159767]},
 "properties":{"prmname":"GW_05",
 "description":"Central Valley groundwater basin",
 "type":"Groundwater Storage",
 "initialstorage":83395,
 "endingstorage":84022,
 "inflows":{"default":{"description":"Groundwater inflow GW-5 based on C2VSIM Historical Run356","inflow":{"$ref" : "inflows/default.csv"}}},
 "storage":{"$ref" : "storage.csv"},
 "costs":{"type":"Constant",
 "cost":0},
 "bounds":[{"type":"NOB"}],
 "sinks":null,
 "flow":null}}
