{"type": "Feature", "geometry": {"type": "Point", "coordinates": [-122.255623, 39.902166]}, "properties": {"prmname": "GW_02", "description": "Central Valley groundwater basin", "type": "Groundwater Storage", "initialstorage": 142310, "endingstorage": 141212, "inflows": {"default": {"description": "Groundwater inflow GW-2 based on C2VSIM R356 Historical inflows", "inflow": {"$ref": "inflows/default.csv"}}}, "storage": {"$ref": "storage.csv"}, "costs": {"type": "Constant", "cost": 0}, "bounds": [{"type": "NOB"}], "sinks": null, "flow": null}}