{"type": "Feature", "geometry": {"type": "Point", "coordinates": [-120.348257, 37.218381]}, "properties": {"prmname": "GW_13", "description": "Central Valley groundwater basin", "type": "Groundwater Storage", "initialstorage": 207795, "endingstorage": 194251, "inflows": {"default": {"description": "Groundwater inflow GW-13 C2VSIM Historical Run ", "inflow": {"$ref": "inflows/default.csv"}}}, "storage": {"$ref": "storage.csv"}, "costs": {"type": "Constant", "cost": 0}, "bounds": [{"type": "NOB"}], "sinks": null, "flow": null}}