{"type": "Feature", "geometry": {"type": "Point", "coordinates": [-119.843125, 36.276589]}, "properties": {"prmname": "GW_15", "description": "Central Valley groundwater basin", "type": "Groundwater Storage", "initialstorage": 309643, "endingstorage": 309643, "inflows": {"default": {"description": "Groundwater inflow GW-15 C2VSIM Historical Run ", "inflow": {"$ref": "inflows/default.csv"}}}, "storage": {"$ref": "storage.csv"}, "costs": {"type": "Constant", "cost": 0}, "bounds": [{"type": "NOB"}], "sinks": null, "flow": null}}